OBJECT_NAME,OBJECT_ID,EPOCH,MEAN_MOTION,ECCENTRICITY,INCLINATION,RA_OF_ASC_NODE,ARG_OF_PERICENTER,MEAN_ANOMALY,EPHEMERIS_TYPE,CLASSIFICATION_TYPE,NORAD_CAT_ID,ELEMENT_SET_NO,REV_AT_EPOCH,BSTAR,MEAN_MOTION_DOT,MEAN_MOTION_DDOT
FORMOSAT 7-3,2019-036E,2026-06-14T17:43:26.558112,15.09786556,.00003888,23.9974,195.3961,210.3238,149.7244,0,U,44343,999,38287,.19635121E-3,.3601E-4,0
FORMOSAT 7-1,2019-036L,2026-06-14T23:31:05.348064,14.96497002,.0000941,23.9975,47.2732,136.6905,223.3670,0,U,44349,999,38432,.19221E-3,.254E-4,0
FORMOSAT 7-4,2019-036M,2026-06-15T03:15:28.050048,14.96490785,.0001268,23.9977,108.3283,153.8541,206.2024,0,U,44350,999,38376,.17938E-3,.239E-4,0
FORMOSAT 7-2,2019-036N,2026-06-14T16:35:31.602336,14.96489879,.00008935,23.9962,165.6418,136.7195,223.3376,0,U,44351,999,38321,.1673145E-3,.2249E-4,0
FORMOSAT 7-6,2019-036Q,2026-06-15T03:47:19.708800,14.96503562,.0001427,23.9995,343.3120,74.7667,285.2991,0,U,44353,999,38151,.18247E-3,.2427E-4,0
FORMOSAT 7-5,2019-036V,2026-06-15T00:02:33.392832,14.96510526,.000064,23.9977,283.1169,109.4074,250.6496,0,U,44358,999,38202,.18927E-3,.2506E-4,0
METEOR-M2 2,2019-038A,2026-06-15T04:58:50.863296,14.24366270,.0002126,98.9136,153.4634,51.7959,308.3411,0,U,44387,999,36101,.10425E-3,.195E-5,0
GLOBAL-4,2019-054E,2026-06-14T17:09:39.446496,15.64203962,.00062061,45.0056,250.6641,321.3031,38.7421,0,U,44499,999,37997,.49412079E-3,.4813E-3,0
ZY-1 02D,2019-059A,2026-06-15T04:29:43.363680,14.35459029,.0002419,98.3194,227.7426,109.9303,250.2144,0,U,44528,999,35405,.33084E-4,.53E-6,0
TAURUS-1 (JINNIUZUO 1),2019-059C,2026-06-15T04:53:14.279136,14.72076399,.0007571,98.6404,330.9080,323.3750,36.6937,0,U,44530,999,35835,.71749E-3,.4459E-4,0
ZHUHAI-1 03B,2019-060C,2026-06-15T04:29:36.631392,15.53991821,.0007582,97.5522,323.8444,326.2166,33.8603,0,U,44536,999,37601,.37013E-3,.23881E-3,0
ZHUHAI-1 03D,2019-060E,2026-06-15T03:46:46.201152,15.49651556,.0006679,97.5388,315.9522,309.1275,50.9381,0,U,44538,999,37576,.50039E-3,.27684E-3,0
ZHUHAI-1 03E,2019-060F,2026-06-15T03:58:33.777408,15.41010202,.0006099,97.5607,316.0425,40.3478,319.8219,0,U,44539,999,37545,.38374E-3,.15762E-3,0
GAOFEN-7,2019-072A,2026-06-15T05:25:12.733248,15.21588808,.0017533,97.2431,227.7671,47.2940,312.9770,0,U,44703,999,36734,.15542E-3,.3452E-4,0
JILIN-1 GAOFEN 2A,2019-075A,2026-06-15T04:26:15.060192,15.39261625,.0007545,97.4973,249.9277,93.3675,266.8433,0,U,44777,999,36457,.30257E-3,.11713E-3,0
NINGXIA-1 1,2019-076A,2026-06-15T04:28:21.422784,14.02037986,.0010502,45.0037,188.7935,153.7449,206.3919,0,U,44779,999,33757,.27209E-4,-.88E-6,0
NINGXIA-1 5,2019-076E,2026-06-15T04:47:35.815776,14.02086380,.0009953,45.0036,188.0757,142.9281,217.2242,0,U,44783,999,33749,.11055E-3,.4E-6,0
KL-ALPHA A,2019-077A,2026-06-15T04:50:29.915232,13.56042898,.0013174,88.9258,222.7817,110.7673,249.4894,0,U,44785,999,32546,.11547E-3,.93E-6,0
CARTOSAT-3,2019-081A,2026-06-15T04:21:16.841088,15.19271652,.0013033,97.4312,228.0802,155.4020,204.7839,0,U,44804,999,36316,.24171E-3,.504E-4,0
JILIN-1 GAOFEN 2B,2019-086A,2026-06-15T04:09:22.346784,15.20691552,.0013029,97.4887,238.1763,331.9977,28.0556,0,U,44836,999,36018,.21215E-3,.4601E-4,0
TIANQIN 1 (CAS-6),2019-093A,2026-06-15T03:34:16.345920,14.95426920,.0012328,97.7813,250.0035,63.3724,296.8758,0,U,44879,999,35174,.20537E-3,.2215E-4,0
ETRSS-1,2019-093B,2026-06-15T03:44:56.367744,14.95856958,.0012279,97.7828,250.4675,63.6187,296.6293,0,U,44880,999,35175,.26524E-3,.291E-4,0
TIANYAN 01,2019-093C,2026-06-15T03:50:23.801280,14.86518188,.0015078,97.7538,238.4412,93.0577,267.2365,0,U,44881,999,35111,.15543E-3,.1325E-4,0
TIANYAN 02,2019-093D,2026-06-15T04:36:00.762336,15.05209667,.0014325,97.7947,260.9621,36.5430,323.6771,0,U,44882,999,35231,.42201E-3,.5972E-4,0
CBERS 4A,2019-093E,2026-06-15T04:45:59.950656,14.81791230,.0001999,98.0129,233.6361,354.8536,5.2656,0,U,44883,999,35078,.97114E-4,.713E-5,0
WEILAI 1R,2019-093F,2026-06-15T04:30:05.134752,15.00632077,.0017906,97.7862,256.0696,42.5246,317.7360,0,U,44884,999,35212,.40376E-3,.5061E-4,0
FLORIPASAT-1,2019-093G,2026-06-15T05:30:16.346304,15.03857469,.0012886,97.7916,260.4455,78.0219,282.2450,0,U,44885,999,35235,.43218E-3,.5897E-4,0
SHUNTIAN,2019-093H,2026-06-15T03:12:08.411616,14.95153797,.0013341,97.8021,254.3038,74.9871,285.2825,0,U,44886,999,35187,.30586E-3,.3305E-4,0
