FORMOSAT 7-3            
1 44343U 19036E   26165.73850183  .00003601  00000+0  19635-3 0  9998
2 44343  23.9974 195.3961 0000388 210.3238 149.7244 15.09786556382877
FORMOSAT 7-1            
1 44349U 19036L   26165.97992301  .00002540  00000+0  19221-3 0  9991
2 44349  23.9975  47.2732 0000941 136.6905 223.3670 14.96497002384325
FORMOSAT 7-4            
1 44350U 19036M   26166.13574132  .00002390  00000+0  17938-3 0  9996
2 44350  23.9977 108.3283 0001268 153.8541 206.2024 14.96490785383760
FORMOSAT 7-2            
1 44351U 19036N   26165.69133799  .00002249  00000+0  16731-3 0  9990
2 44351  23.9962 165.6418 0000893 136.7195 223.3376 14.96489879383211
FORMOSAT 7-6            
1 44353U 19036Q   26166.15786700  .00002427  00000+0  18247-3 0  9992
2 44353  23.9995 343.3120 0001427  74.7667 285.2991 14.96503562381510
FORMOSAT 7-5            
1 44358U 19036V   26166.00177538  .00002506  00000+0  18927-3 0  9997
2 44358  23.9977 283.1169 0000640 109.4074 250.6496 14.96510526382024
METEOR-M2 2             
1 44387U 19038A   26166.20753314  .00000195  00000+0  10425-3 0  9992
2 44387  98.9136 153.4634 0002126  51.7959 308.3411 14.24366270361013
GLOBAL-4                
1 44499U 19054E   26165.71503989  .00048130  00000+0  49412-3 0  9999
2 44499  45.0056 250.6641 0006206 321.3031  38.7421 15.64203962379971
ZY-1 02D                
1 44528U 19059A   26166.18730745  .00000053  00000+0  33084-4 0  9992
2 44528  98.3194 227.7426 0002419 109.9303 250.2144 14.35459029354057
TAURUS-1 (JINNIUZUO 1)  
1 44530U 19059C   26166.20363749  .00004459  00000+0  71749-3 0  9997
2 44530  98.6404 330.9080 0007571 323.3750  36.6937 14.72076399358351
ZHUHAI-1 03B            
1 44536U 19060C   26166.18722953  .00023881  00000+0  37013-3 0  9994
2 44536  97.5522 323.8444 0007582 326.2166  33.8603 15.53991821376014
ZHUHAI-1 03D            
1 44538U 19060E   26166.15747918  .00027684  00000+0  50039-3 0  9999
2 44538  97.5388 315.9522 0006679 309.1275  50.9381 15.49651556375769
ZHUHAI-1 03E            
1 44539U 19060F   26166.16566872  .00015762  00000+0  38374-3 0  9991
2 44539  97.5607 316.0425 0006099  40.3478 319.8219 15.41010202375455
GAOFEN-7                
1 44703U 19072A   26166.22584182  .00003452  00000+0  15542-3 0  9993
2 44703  97.2431 227.7671 0017533  47.2940 312.9770 15.21588808367341
JILIN-1 GAOFEN 2A       
1 44777U 19075A   26166.18489653  .00011713  00000+0  30257-3 0  9998
2 44777  97.4973 249.9277 0007545  93.3675 266.8433 15.39261625364571
NINGXIA-1 1             
1 44779U 19076A   26166.18635906 -.00000088  00000+0  27209-4 0  9993
2 44779  45.0037 188.7935 0010502 153.7449 206.3919 14.02037986337579
NINGXIA-1 5             
1 44783U 19076E   26166.19972009  .00000040  00000+0  11055-3 0  9995
2 44783  45.0036 188.0757 0009953 142.9281 217.2242 14.02086380337493
KL-ALPHA A              
1 44785U 19077A   26166.20173513  .00000093  00000+0  11547-3 0  9997
2 44785  88.9258 222.7817 0013174 110.7673 249.4894 13.56042898325466
CARTOSAT-3              
1 44804U 19081A   26166.18144492  .00005040  00000+0  24171-3 0  9999
2 44804  97.4312 228.0802 0013033 155.4020 204.7839 15.19271652363168
JILIN-1 GAOFEN 2B       
1 44836U 19086A   26166.17317531  .00004601  00000+0  21215-3 0  9992
2 44836  97.4887 238.1763 0013029 331.9977  28.0556 15.20691552360184
TIANQIN 1 (CAS-6)       
1 44879U 19093A   26166.14880030  .00002215  00000+0  20537-3 0  9998
2 44879  97.7813 250.0035 0012328  63.3724 296.8758 14.95426920351742
ETRSS-1                 
1 44880U 19093B   26166.15620796  .00002910  00000+0  26524-3 0  9996
2 44880  97.7828 250.4675 0012279  63.6187 296.6293 14.95856958351756
TIANYAN 01              
1 44881U 19093C   26166.15999770  .00001325  00000+0  15543-3 0  9996
2 44881  97.7538 238.4412 0015078  93.0577 267.2365 14.86518188351114
TIANYAN 02              
1 44882U 19093D   26166.19167549  .00005972  00000+0  42201-3 0  9995
2 44882  97.7947 260.9621 0014325  36.5430 323.6771 15.05209667352317
CBERS 4A                
1 44883U 19093E   26166.19861054  .00000713  00000+0  97114-4 0  9990
2 44883  98.0129 233.6361 0001999 354.8536   5.2656 14.81791230350787
WEILAI 1R               
1 44884U 19093F   26166.18755943  .00005061  00000+0  40376-3 0  9997
2 44884  97.7862 256.0696 0017906  42.5246 317.7360 15.00632077352120
FLORIPASAT-1            
1 44885U 19093G   26166.22935586  .00005897  00000+0  43218-3 0  9991
2 44885  97.7916 260.4455 0012886  78.0219 282.2450 15.03857469352357
SHUNTIAN                
1 44886U 19093H   26166.13343069  .00003305  00000+0  30586-3 0  9997
2 44886  97.8021 254.3038 0013341  74.9871 285.2825 14.95153797351879
